MALLIGYONG-1            
1 58400U 23179A   24251.57588172  .00013991  00000+0  61227-3 0  9999
2 58400  97.3895 137.0386 0002545 132.2347 227.9105 15.22157424 44250
